[{"OBJECT_NAME":"STARLINK-31366","OBJECT_ID":"2024-064F","EPOCH":"2026-03-09T00:33:14.520672","MEAN_MOTION":15.27585402,"ECCENTRICITY":1.693e-5,"INCLINATION":42.9984,"RA_OF_ASC_NODE":59.9515,"ARG_OF_PERICENTER":94.417,"MEAN_ANOMALY":265.67,"EPHEMERIS_TYPE":0,"CLASSIFICATION_TYPE":"U","NORAD_CAT_ID":59403,"ELEMENT_SET_NO":999,"REV_AT_EPOCH":10912,"BSTAR":-0.00012422092,"MEAN_MOTION_DOT":-3.679e-5,"MEAN_MOTION_DDOT":0},{"OBJECT_NAME":"COSMOS 2251 DEB","OBJECT_ID":"1993-036TX","EPOCH":"2026-03-09T08:00:49.998528","MEAN_MOTION":15.19675953,"ECCENTRICITY":0.00326805,"INCLINATION":74.0422,"RA_OF_ASC_NODE":187.2566,"ARG_OF_PERICENTER":9.105,"MEAN_ANOMALY":22.3257,"EPHEMERIS_TYPE":0,"CLASSIFICATION_TYPE":"U","NORAD_CAT_ID":34478,"ELEMENT_SET_NO":999,"REV_AT_EPOCH":90283,"BSTAR":0.0038377669,"MEAN_MOTION_DOT":0.00083988,"MEAN_MOTION_DDOT":0}]
